LEGION 1                
1 59625U 24081A   26189.47026012  .00002210  00000+0  11584-3 0  9996
2 59625  97.5010 267.1013 0007799 297.7337  62.3105 15.16814728120767
LEGION 2                
1 59626U 24081B   26189.50054860  .00002646  00000+0  13804-3 0  9993
2 59626  97.5010 267.2282 0009882 259.9000 100.1119 15.16793732120777
LEGION 3                
1 60452U 24146A   26189.48189793  .00001961  00000+0  11506-3 0  9991
2 60452  45.0019 276.3717 0008761 299.1109  60.8892 15.15627930105259
LEGION 4                
1 60453U 24146B   26189.54814663  .00002985  00000+0  16525-3 0  9993
2 60453  45.0025   7.8901 0011492  70.1818 290.0298 15.16207118104112
LEGION 5                
1 62900U 25025A   26189.48343295  .00001880  00000+0  10959-3 0  9998
2 62900  45.0001 187.2116 0008559 269.0811  90.9087 15.16046257 77722
LEGION 6                
1 62901U 25025B   26188.95370475  .00002579  00000+0  14683-3 0  9994
2 62901  45.0006  99.1773 0010615 239.8739 120.1087 15.15655960 78787
