{"fetched_at":"2026-07-08T17:59:55.099Z","source":"https://celestrak.org/NORAD/elements/gp.php?NAME=LEGION&FORMAT=JSON","constellation":"maxar-legion","records":[{"OBJECT_NAME":"LEGION 1","OBJECT_ID":"2024-081A","EPOCH":"2026-07-08T11:17:10.474368","CLASSIFICATION_TYPE":"U","MEAN_MOTION":15.16814728,"ECCENTRICITY":0.0007799,"INCLINATION":97.501,"RA_OF_ASC_NODE":267.1013,"ARG_OF_PERICENTER":297.7337,"MEAN_ANOMALY":62.3105,"EPHEMERIS_TYPE":0,"NORAD_CAT_ID":59625,"ELEMENT_SET_NO":999,"REV_AT_EPOCH":12076,"BSTAR":0.00011584,"MEAN_MOTION_DOT":0.0000221,"MEAN_MOTION_DDOT":0},{"OBJECT_NAME":"LEGION 2","OBJECT_ID":"2024-081B","EPOCH":"2026-07-08T12:00:47.399040","CLASSIFICATION_TYPE":"U","MEAN_MOTION":15.16793732,"ECCENTRICITY":0.0009882,"INCLINATION":97.501,"RA_OF_ASC_NODE":267.2282,"ARG_OF_PERICENTER":259.9,"MEAN_ANOMALY":100.1119,"EPHEMERIS_TYPE":0,"NORAD_CAT_ID":59626,"ELEMENT_SET_NO":999,"REV_AT_EPOCH":12077,"BSTAR":0.00013804,"MEAN_MOTION_DOT":0.00002646,"MEAN_MOTION_DDOT":0},{"OBJECT_NAME":"LEGION 3","OBJECT_ID":"2024-146A","EPOCH":"2026-07-08T11:33:55.981152","CLASSIFICATION_TYPE":"U","MEAN_MOTION":15.1562793,"ECCENTRICITY":0.0008761,"INCLINATION":45.0019,"RA_OF_ASC_NODE":276.3717,"ARG_OF_PERICENTER":299.1109,"MEAN_ANOMALY":60.8892,"EPHEMERIS_TYPE":0,"NORAD_CAT_ID":60452,"ELEMENT_SET_NO":999,"REV_AT_EPOCH":10525,"BSTAR":0.00011506,"MEAN_MOTION_DOT":0.00001961,"MEAN_MOTION_DDOT":0},{"OBJECT_NAME":"LEGION 4","OBJECT_ID":"2024-146B","EPOCH":"2026-07-08T13:09:19.868832","CLASSIFICATION_TYPE":"U","MEAN_MOTION":15.16207118,"ECCENTRICITY":0.0011492,"INCLINATION":45.0025,"RA_OF_ASC_NODE":7.8901,"ARG_OF_PERICENTER":70.1818,"MEAN_ANOMALY":290.0298,"EPHEMERIS_TYPE":0,"NORAD_CAT_ID":60453,"ELEMENT_SET_NO":999,"REV_AT_EPOCH":10411,"BSTAR":0.00016525,"MEAN_MOTION_DOT":0.00002985,"MEAN_MOTION_DDOT":0},{"OBJECT_NAME":"LEGION 5","OBJECT_ID":"2025-025A","EPOCH":"2026-07-08T11:36:08.606880","CLASSIFICATION_TYPE":"U","MEAN_MOTION":15.16046257,"ECCENTRICITY":0.0008559,"INCLINATION":45.0001,"RA_OF_ASC_NODE":187.2116,"ARG_OF_PERICENTER":269.0811,"MEAN_ANOMALY":90.9087,"EPHEMERIS_TYPE":0,"NORAD_CAT_ID":62900,"ELEMENT_SET_NO":999,"REV_AT_EPOCH":7772,"BSTAR":0.00010959,"MEAN_MOTION_DOT":0.0000188,"MEAN_MOTION_DDOT":0},{"OBJECT_NAME":"LEGION 6","OBJECT_ID":"2025-025B","EPOCH":"2026-07-07T22:53:20.090400","CLASSIFICATION_TYPE":"U","MEAN_MOTION":15.1565596,"ECCENTRICITY":0.0010615,"INCLINATION":45.0006,"RA_OF_ASC_NODE":99.1773,"ARG_OF_PERICENTER":239.8739,"MEAN_ANOMALY":120.1087,"EPHEMERIS_TYPE":0,"NORAD_CAT_ID":62901,"ELEMENT_SET_NO":999,"REV_AT_EPOCH":7878,"BSTAR":0.00014683,"MEAN_MOTION_DOT":0.00002579,"MEAN_MOTION_DDOT":0}]}
